[{"OBJECT_NAME":"COSMOS 2503","OBJECT_ID":"2015-009A","EPOCH":"2026-03-09T16:42:37.703808","MEAN_MOTION":15.06275973,"ECCENTRICITY":0.00153206,"INCLINATION":97.8437,"RA_OF_ASC_NODE":123.7175,"ARG_OF_PERICENTER":225.745,"MEAN_ANOMALY":134.252,"EPHEMERIS_TYPE":0,"CLASSIFICATION_TYPE":"U","NORAD_CAT_ID":40420,"ELEMENT_SET_NO":999,"REV_AT_EPOCH":60395,"BSTAR":0.00019589832,"MEAN_MOTION_DOT":2.817e-5,"MEAN_MOTION_DDOT":0},{"OBJECT_NAME":"STARLINK-5763","OBJECT_ID":"2023-065C","EPOCH":"2026-03-09T22:00:01.999584","MEAN_MOTION":15.05557996,"ECCENTRICITY":0.00020078,"INCLINATION":42.9998,"RA_OF_ASC_NODE":209.382,"ARG_OF_PERICENTER":283.9887,"MEAN_ANOMALY":150.795,"EPHEMERIS_TYPE":0,"CLASSIFICATION_TYPE":"U","NORAD_CAT_ID":56505,"ELEMENT_SET_NO":999,"REV_AT_EPOCH":578,"BSTAR":0.0046083415,"MEAN_MOTION_DOT":0.00067934,"MEAN_MOTION_DDOT":0}]
